NORAD_CAT_ID,OBJECT_NAME,OBJECT_TYPE,EPOCH,MEAN_MOTION,ECCENTRICITY,INCLINATION,RA_OF_ASC_NODE,ARG_OF_PERICENTER,MEAN_ANOMALY,BSTAR,MEAN_MOTION_DOT,MEAN_MOTION_DDOT,TLE_LINE0,TLE_LINE1,TLE_LINE2,SEMIMAJOR_AXIS,PERIOD,APOGEE,PERIGEE,DECAYED
55277.0,STARLINK-5299,PAYLOAD,2024-08-09 19:21:53,14.98332818,0.0002872,70.0,59.0158,272.2915,87.7915,9.0513e-05,9.87e-06,0.0,0 STARLINK-5299,1 55277U 23010J   24222.80686775  .00000987  00000-0  90513-4 0  9997,2 55277  70.0000  59.0158 0002872 272.2915  87.7915 14.98332818 86064,6950.184,96.107,574.045,570.053,0.0
55277.0,STARLINK-5299,PAYLOAD,2024-08-09 20:58:01,14.98333412,0.0002826,70.0,58.8475,272.227,87.8566,7.7677e-05,8.34e-06,0.0,0 STARLINK-5299,1 55277U 23010J   24222.87362786  .00000834  00000-0  77677-4 0  9994,2 55277  70.0000  58.8475 0002826 272.2270  87.8566 14.98333412 86385,6950.182,96.107,574.011,570.083,0.0
55277.0,STARLINK-5299,PAYLOAD,2024-08-10 14:35:30,14.98327628,0.0003034,69.9997,56.9936,271.1214,88.9597,4.0681e-05,3.92e-06,0.0,0 STARLINK-5299,1 55277U 23010J   24223.60799058  .00000392  00000-0  40681-4 0  9996,2 55277  69.9997  56.9936 0003034 271.1214  88.9597 14.98327628 86496,6950.2,96.107,574.174,569.957,0.0
55277.0,STARLINK-5299,PAYLOAD,2024-08-10 21:00:02,14.98331126,0.0002808,70.0003,56.3205,265.4346,94.6492,9.4248e-05,1.032e-05,0.0,0 STARLINK-5299,1 55277U 23010J   24223.87502733  .00001032  00000-0  94248-4 0  9997,2 55277  70.0003  56.3205 0002808 265.4346  94.6492 14.98331126 86227,6950.189,96.107,574.006,570.103,0.0
55277.0,STARLINK-5299,PAYLOAD,2024-08-10 22:36:10,14.98332281,0.0002846,70.0004,56.1522,267.5401,92.5432,0.00012708,1.424e-05,0.0,0 STARLINK-5299,1 55277U 23010J   24223.94178609  .00001424  00000-0  12708-3 0  9991,2 55277  70.0004  56.1522 0002846 267.5401  92.5432 14.98332281 86544,6950.186,96.107,574.029,570.073,0.0
55277.0,STARLINK-5299,PAYLOAD,2024-08-11 22:38:11,14.98337205,0.0003124,69.9999,53.6283,272.2636,87.8165,0.00016686,1.899e-05,0.0,0 STARLINK-5299,1 55277U 23010J   24224.94318291  .00001899  00000-0  16686-3 0  9990,2 55277  69.9999  53.6283 0003124 272.2636  87.8165 14.98337205 86690,6950.171,96.107,574.207,569.864,0.0
55277.0,STARLINK-5299,PAYLOAD,2024-08-12 11:27:15,14.98331188,0.0002857,70.0007,52.2809,269.519,90.5642,0.00012391,1.386e-05,0.0,0 STARLINK-5299,1 55277U 23010J   24225.47726706  .00001386  00000-0  12391-3 0  9993,2 55277  70.0007  52.2809 0002857 269.5190  90.5642 14.98331188 86468,6950.189,96.107,574.04,570.069,0.0
55277.0,STARLINK-5299,PAYLOAD,2024-08-12 19:27:55,14.98344893,0.0002921,69.9999,51.4388,272.3929,87.6896,0.00022879,2.639e-05,0.0,0 STARLINK-5299,1 55277U 23010J   24225.81105626  .00002639  00000-0  22879-3 0  9997,2 55277  69.9999  51.4388 0002921 272.3929  87.6896 14.98344893 86513,6950.147,96.106,574.042,569.982,0.0
55277.0,STARLINK-5299,PAYLOAD,2024-08-12 22:40:11,14.98348504,0.0002832,70.0022,51.1025,272.898,87.1855,0.00040526,4.748e-05,0.0,0 STARLINK-5299,1 55277U 23010J   24225.94457795  .00004748  00000-0  40526-3 0  9990,2 55277  70.0022  51.1025 0002832 272.8980  87.1855 14.98348504 86840,6950.136,96.106,573.969,570.032,0.0
55277.0,STARLINK-5299,PAYLOAD,2024-08-13 05:04:44,14.98325437,0.0003265,69.9992,50.4269,275.6996,84.379,0.00059055,6.96e-05,0.0,0 STARLINK-5299,1 55277U 23010J   24226.21162835  .00006960  00000-0  59055-3 0  9994,2 55277  69.9992  50.4269 0003265 275.6996  84.3790 14.98325437 86571,6950.207,96.107,574.341,569.803,0.0
55277.0,STARLINK-5299,PAYLOAD,2024-08-14 05:06:45,14.98327015,0.0002551,70.0085,47.9051,269.3627,90.724,-0.00012224,-1.551e-05,0.0,0 STARLINK-5299,1 55277U 23010J   24227.21303000 -.00001551  00000-0 -12224-3 0  9996,2 55277  70.0085  47.9051 0002551 269.3627  90.7240 14.98327015 86727,6950.202,96.107,573.84,570.294,0.0
55277.0,STARLINK-5299,PAYLOAD,2024-08-14 14:43:33,14.98331574,0.0003083,70.0014,46.8951,266.3098,93.7709,-4.2813e-05,-6.04e-06,0.0,0 STARLINK-5299,1 55277U 23010J   24227.61358548 -.00000604  00000-0 -42813-4 0  9993,2 55277  70.0014  46.8951 0003083 266.3098  93.7709 14.98331574 87095,6950.188,96.107,574.196,569.91,0.0
55277.0,STARLINK-5299,PAYLOAD,2024-08-14 21:08:06,14.98332084,0.0003067,70.0011,46.2214,267.8044,92.2764,-6.275e-07,-1e-06,0.0,0 STARLINK-5299,1 55277U 23010J   24227.88062541 -.00000100  00000-0 -62750-6 0  9992,2 55277  70.0011  46.2214 0003067 267.8044  92.2764 14.98332084 87134,6950.186,96.107,574.183,569.92,0.0
55277.0,STARLINK-5299,PAYLOAD,2024-08-15 05:08:46,14.98336791,0.0003017,69.9998,45.3799,267.7517,92.3296,1.283e-05,6e-07,0.0,0 STARLINK-5299,1 55277U 23010J   24228.21442390  .00000060  00000-0  12830-4 0  9999,2 55277  69.9998  45.3799 0003017 267.7517  92.3296 14.98336791 87187,6950.172,96.107,574.134,569.94,0.0
55277.0,STARLINK-5299,PAYLOAD,2024-08-15 17:57:50,14.98331425,0.0003058,70.0,44.0325,266.9902,93.0907,0.0001593,1.808e-05,0.0,0 STARLINK-5299,1 55277U 23010J   24228.74850586  .00001808  00000-0  15930-3 0  9991,2 55277  70.0000  44.0325 0003058 266.9902  93.0907 14.98331425 87264,6950.188,96.107,574.179,569.928,0.0
55277.0,STARLINK-5299,PAYLOAD,2024-08-16 21:12:07,14.98333136,0.0003085,69.9999,41.1706,264.3298,95.7509,0.00013405,1.507e-05,0.0,0 STARLINK-5299,1 55277U 23010J   24229.88342584  .00001507  00000-0  13405-3 0  9992,2 55277  69.9999  41.1706 0003085 264.3298  95.7509 14.98333136 87436,6950.183,96.107,574.192,569.904,0.0
55277.0,STARLINK-5299,PAYLOAD,2024-08-17 11:37:20,14.9833133,0.000317,69.9996,39.6551,265.9736,94.1061,5.5416e-05,5.68e-06,0.0,0 STARLINK-5299,1 55277U 23010J   24230.48426697  .00000568  00000-0  55416-4 0  9993,2 55277  69.9996  39.6551 0003170 265.9736  94.1061 14.98331330 87522,6950.189,96.107,574.257,569.851,0.0
55277.0,STARLINK-5299,PAYLOAD,2024-08-18 13:15:29,14.98331604,0.0003123,69.9995,36.9618,268.8679,91.2122,0.00011705,1.304e-05,0.0,0 STARLINK-5299,1 55277U 23010J   24231.55242395  .00001304  00000-0  11705-3 0  9994,2 55277  69.9995  36.9618 0003123 268.8679  91.2122 14.98331604 87374,6950.188,96.107,574.223,569.882,0.0
55277.0,STARLINK-5299,PAYLOAD,2024-08-18 21:16:09,14.98334552,0.0003163,70.0002,36.1207,267.6311,92.4486,0.00014589,1.648e-05,0.0,0 STARLINK-5299,1 55277U 23010J   24231.88622138  .00001648  00000-0  14589-3 0  9991,2 55277  70.0002  36.1207 0003163 267.6311  92.4486 14.98334552 87737,6950.179,96.107,574.242,569.845,0.0
55277.0,STARLINK-5299,PAYLOAD,2024-08-20 03:42:42,14.98332125,0.0002806,70.0011,32.9227,270.4417,89.642,9.5734e-05,1.05e-05,0.0,0 STARLINK-5299,1 55277U 23010J   24233.15466413  .00001050  00000-0  95734-4 0  9994,2 55277  70.0011  32.9227 0002806 270.4417  89.6420 14.98332125 87612,6950.186,96.107,574.002,570.101,0.0
55277.0,STARLINK-5299,PAYLOAD,2024-08-20 14:55:39,14.98333905,0.000297,70.0007,31.7447,268.2623,91.8196,7.9629e-05,8.57e-06,0.0,0 STARLINK-5299,1 55277U 23010J   24233.62198222  .00000857  00000-0  79629-4 0  9995,2 55277  70.0007  31.7447 0002970 268.2623  91.8196 14.98333905 87997,6950.181,96.107,574.11,569.982,0.0
55277.0,STARLINK-5299,PAYLOAD,2024-08-21 11:45:24,14.98331019,0.0002922,70.0008,29.5565,268.2808,91.8016,6.7331e-05,7.11e-06,0.0,0 STARLINK-5299,1 55277U 23010J   24234.48986391  .00000711  00000-0  67331-4 0  9998,2 55277  70.0008  29.5565 0002922 268.2808  91.8016 14.98331019 87812,6950.19,96.107,574.086,570.024,0.0
55277.0,STARLINK-5299,PAYLOAD,2024-08-21 14:57:40,14.98330453,0.0002936,70.0008,29.2199,268.0673,92.015,5.6386e-05,5.8e-06,0.0,0 STARLINK-5299,1 55277U 23010J   24234.62338433  .00000580  00000-0  56386-4 0  9994,2 55277  70.0008  29.2199 0002936 268.0673  92.0150 14.98330453 88145,6950.191,96.107,574.097,570.016,0.0
55277.0,STARLINK-5299,PAYLOAD,2024-08-21 19:46:04,14.98329769,0.0002958,70.0008,28.7149,268.6086,91.4735,4.3782e-05,4.29e-06,0.0,0 STARLINK-5299,1 55277U 23010J   24234.82366497  .00000429  00000-0  43782-4 0  9995,2 55277  70.0008  28.7149 0002958 268.6086  91.4735 14.98329769 88175,6950.194,96.107,574.114,570.003,0.0
